[{"CCSDS_OMM_VERS":"3.0","COMMENT":"GENERATED VIA SPACE-TRACK.ORG API","CREATION_DATE":"2026-05-19T10:22:28","ORIGINATOR":"18 SPCS","OBJECT_NAME":"COSMOS 2584(GLONASS)","OBJECT_ID":"2025-042A","CENTER_NAME":"EARTH","REF_FRAME":"TEME","TIME_SYSTEM":"UTC","MEAN_ELEMENT_THEORY":"SGP4","EPOCH":"2026-05-19T01:06:39.345408","MEAN_MOTION":"2.13103706","ECCENTRICITY":"0.00061741","INCLINATION":"65.0688","RA_OF_ASC_NODE":"73.7923","ARG_OF_PERICENTER":"233.4667","MEAN_ANOMALY":"126.4639","EPHEMERIS_TYPE":"0","CLASSIFICATION_TYPE":"U","NORAD_CAT_ID":"63130","ELEMENT_SET_NO":"999","REV_AT_EPOCH":"942","BSTAR":"0.00000000000000","MEAN_MOTION_DOT":"-0.00000009","MEAN_MOTION_DDOT":"0.0000000000000","SEMIMAJOR_AXIS":"25507.888","PERIOD":"675.727","APOAPSIS":"19145.502","PERIAPSIS":"19114.004","OBJECT_TYPE":"PAYLOAD","RCS_SIZE":"LARGE","COUNTRY_CODE":"CIS","LAUNCH_DATE":"2025-03-02","SITE":"PKMTR","DECAY_DATE":null,"FILE":"5203799","GP_ID":"323825371","TLE_LINE0":"0 COSMOS 2584(GLONASS)","TLE_LINE1":"1 63130U 25042A   26139.04628872 -.00000009  00000-0  00000-0 0  9994","TLE_LINE2":"2 63130  65.0688  73.7923 0006174 233.4667 126.4639  2.13103706  9427"},{"CCSDS_OMM_VERS":"3.0","COMMENT":"GENERATED VIA SPACE-TRACK.ORG API","CREATION_DATE":"2026-05-19T07:06:31","ORIGINATOR":"18 SPCS","OBJECT_NAME":"COSMOS 2584(GLONASS)","OBJECT_ID":"2025-042A","CENTER_NAME":"EARTH","REF_FRAME":"TEME","TIME_SYSTEM":"UTC","MEAN_ELEMENT_THEORY":"SGP4","EPOCH":"2026-05-19T01:06:39.345408","MEAN_MOTION":"2.13103706","ECCENTRICITY":"0.00061740","INCLINATION":"65.0688","RA_OF_ASC_NODE":"73.7923","ARG_OF_PERICENTER":"233.4667","MEAN_ANOMALY":"126.4639","EPHEMERIS_TYPE":"0","CLASSIFICATION_TYPE":"U","NORAD_CAT_ID":"63130","ELEMENT_SET_NO":"999","REV_AT_EPOCH":"942","BSTAR":"0.00000000000000","MEAN_MOTION_DOT":"-0.00000009","MEAN_MOTION_DDOT":"0.0000000000000","SEMIMAJOR_AXIS":"25507.888","PERIOD":"675.727","APOAPSIS":"19145.502","PERIAPSIS":"19114.005","OBJECT_TYPE":"PAYLOAD","RCS_SIZE":"LARGE","COUNTRY_CODE":"CIS","LAUNCH_DATE":"2025-03-02","SITE":"PKMTR","DECAY_DATE":null,"FILE":"5203703","GP_ID":"323795307","TLE_LINE0":"0 COSMOS 2584(GLONASS)","TLE_LINE1":"1 63130U 25042A   26139.04628872 -.00000009  00000-0  00000+0 0  9993","TLE_LINE2":"2 63130  65.0688  73.7923 0006174 233.4667 126.4639  2.13103706  9427"},{"CCSDS_OMM_VERS":"3.0","COMMENT":"GENERATED VIA SPACE-TRACK.ORG API","CREATION_DATE":"2026-05-20T02:32:39","ORIGINATOR":"18 SPCS","OBJECT_NAME":"COSMOS 2584(GLONASS)","OBJECT_ID":"2025-042A","CENTER_NAME":"EARTH","REF_FRAME":"TEME","TIME_SYSTEM":"UTC","MEAN_ELEMENT_THEORY":"SGP4","EPOCH":"2026-05-19T01:06:39.348000","MEAN_MOTION":"2.13103707","ECCENTRICITY":"0.00061718","INCLINATION":"65.0688","RA_OF_ASC_NODE":"73.7923","ARG_OF_PERICENTER":"233.4526","MEAN_ANOMALY":"126.4781","EPHEMERIS_TYPE":"0","CLASSIFICATION_TYPE":"U","NORAD_CAT_ID":"63130","ELEMENT_SET_NO":"999","REV_AT_EPOCH":"942","BSTAR":"0.00000000000000","MEAN_MOTION_DOT":"-0.00000009","MEAN_MOTION_DDOT":"0.0000000000000","SEMIMAJOR_AXIS":"25507.888","PERIOD":"675.727","APOAPSIS":"19145.496","PERIAPSIS":"19114.010","OBJECT_TYPE":"PAYLOAD","RCS_SIZE":"LARGE","COUNTRY_CODE":"CIS","LAUNCH_DATE":"2025-03-02","SITE":"PKMTR","DECAY_DATE":null,"FILE":"5205549","GP_ID":"323899624","TLE_LINE0":"0 COSMOS 2584(GLONASS)","TLE_LINE1":"1 63130U 25042A   26139.04628875 -.00000009  00000-0  00000-0 0  9997","TLE_LINE2":"2 63130  65.0688  73.7923 0006172 233.4526 126.4781  2.13103707  9428"},{"CCSDS_OMM_VERS":"3.0","COMMENT":"GENERATED VIA SPACE-TRACK.ORG API","CREATION_DATE":"2026-05-19T15:26:34","ORIGINATOR":"18 SPCS","OBJECT_NAME":"COSMOS 2584(GLONASS)","OBJECT_ID":"2025-042A","CENTER_NAME":"EARTH","REF_FRAME":"TEME","TIME_SYSTEM":"UTC","MEAN_ELEMENT_THEORY":"SGP4","EPOCH":"2026-05-19T01:06:39.348000","MEAN_MOTION":"2.13103707","ECCENTRICITY":"0.00061720","INCLINATION":"65.0688","RA_OF_ASC_NODE":"73.7923","ARG_OF_PERICENTER":"233.4525","MEAN_ANOMALY":"126.4781","EPHEMERIS_TYPE":"0","CLASSIFICATION_TYPE":"U","NORAD_CAT_ID":"63130","ELEMENT_SET_NO":"999","REV_AT_EPOCH":"942","BSTAR":"0.00000000000000","MEAN_MOTION_DOT":"-0.00000009","MEAN_MOTION_DDOT":"0.0000000000000","SEMIMAJOR_AXIS":"25507.888","PERIOD":"675.727","APOAPSIS":"19145.497","PERIAPSIS":"19114.010","OBJECT_TYPE":"PAYLOAD","RCS_SIZE":"LARGE","COUNTRY_CODE":"CIS","LAUNCH_DATE":"2025-03-02","SITE":"PKMTR","DECAY_DATE":null,"FILE":"5204629","GP_ID":"323850652","TLE_LINE0":"0 COSMOS 2584(GLONASS)","TLE_LINE1":"1 63130U 25042A   26139.04628875 -.00000009  00000-0  00000+0 0  9996","TLE_LINE2":"2 63130  65.0688  73.7923 0006172 233.4525 126.4781  2.13103707  9427"},{"CCSDS_OMM_VERS":"3.0","COMMENT":"GENERATED VIA SPACE-TRACK.ORG API","CREATION_DATE":"2026-05-20T11:06:57","ORIGINATOR":"18 SPCS","OBJECT_NAME":"COSMOS 2584(GLONASS)","OBJECT_ID":"2025-042A","CENTER_NAME":"EARTH","REF_FRAME":"TEME","TIME_SYSTEM":"UTC","MEAN_ELEMENT_THEORY":"SGP4","EPOCH":"2026-05-19T23:38:07.356768","MEAN_MOTION":"2.13103731","ECCENTRICITY":"0.00061467","INCLINATION":"65.0693","RA_OF_ASC_NODE":"73.7603","ARG_OF_PERICENTER":"233.1890","MEAN_ANOMALY":"126.7457","EPHEMERIS_TYPE":"0","CLASSIFICATION_TYPE":"U","NORAD_CAT_ID":"63130","ELEMENT_SET_NO":"999","REV_AT_EPOCH":"944","BSTAR":"0.00000000000000","MEAN_MOTION_DOT":"-0.00000007","MEAN_MOTION_DDOT":"0.0000000000000","SEMIMAJOR_AXIS":"25507.886","PERIOD":"675.727","APOAPSIS":"19145.430","PERIAPSIS":"19114.072","OBJECT_TYPE":"PAYLOAD","RCS_SIZE":"LARGE","COUNTRY_CODE":"CIS","LAUNCH_DATE":"2025-03-02","SITE":"PKMTR","DECAY_DATE":null,"FILE":"5206425","GP_ID":"323953130","TLE_LINE0":"0 COSMOS 2584(GLONASS)","TLE_LINE1":"1 63130U 25042A   26139.98480737 -.00000007  00000-0  00000-0 0  9991","TLE_LINE2":"2 63130  65.0693  73.7603 0006147 233.1890 126.7457  2.13103731  9444"},{"CCSDS_OMM_VERS":"3.0","COMMENT":"GENERATED VIA SPACE-TRACK.ORG API","CREATION_DATE":"2026-05-20T06:46:35","ORIGINATOR":"18 SPCS","OBJECT_NAME":"COSMOS 2584(GLONASS)","OBJECT_ID":"2025-042A","CENTER_NAME":"EARTH","REF_FRAME":"TEME","TIME_SYSTEM":"UTC","MEAN_ELEMENT_THEORY":"SGP4","EPOCH":"2026-05-19T23:38:07.356768","MEAN_MOTION":"2.13103731","ECCENTRICITY":"0.00061470","INCLINATION":"65.0693","RA_OF_ASC_NODE":"73.7603","ARG_OF_PERICENTER":"233.1890","MEAN_ANOMALY":"126.7457","EPHEMERIS_TYPE":"0","CLASSIFICATION_TYPE":"U","NORAD_CAT_ID":"63130","ELEMENT_SET_NO":"999","REV_AT_EPOCH":"944","BSTAR":"0.00000000000000","MEAN_MOTION_DOT":"-0.00000007","MEAN_MOTION_DDOT":"0.0000000000000","SEMIMAJOR_AXIS":"25507.886","PERIOD":"675.727","APOAPSIS":"19145.431","PERIAPSIS":"19114.072","OBJECT_TYPE":"PAYLOAD","RCS_SIZE":"LARGE","COUNTRY_CODE":"CIS","LAUNCH_DATE":"2025-03-02","SITE":"PKMTR","DECAY_DATE":null,"FILE":"5206270","GP_ID":"323922494","TLE_LINE0":"0 COSMOS 2584(GLONASS)","TLE_LINE1":"1 63130U 25042A   26139.98480737 -.00000007  00000-0  00000+0 0  9990","TLE_LINE2":"2 63130  65.0693  73.7603 0006147 233.1890 126.7457  2.13103731  9444"},{"CCSDS_OMM_VERS":"3.0","COMMENT":"GENERATED VIA SPACE-TRACK.ORG API","CREATION_DATE":"2026-05-20T17:35:22","ORIGINATOR":"18 SPCS","OBJECT_NAME":"COSMOS 2584(GLONASS)","OBJECT_ID":"2025-042A","CENTER_NAME":"EARTH","REF_FRAME":"TEME","TIME_SYSTEM":"UTC","MEAN_ELEMENT_THEORY":"SGP4","EPOCH":"2026-05-20T10:53:51.315360","MEAN_MOTION":"2.13103740","ECCENTRICITY":"0.00061449","INCLINATION":"65.0696","RA_OF_ASC_NODE":"73.7444","ARG_OF_PERICENTER":"233.1697","MEAN_ANOMALY":"126.7665","EPHEMERIS_TYPE":"0","CLASSIFICATION_TYPE":"U","NORAD_CAT_ID":"63130","ELEMENT_SET_NO":"999","REV_AT_EPOCH":"945","BSTAR":"0.00000000000000","MEAN_MOTION_DOT":"-0.00000007","MEAN_MOTION_DDOT":"0.0000000000000","SEMIMAJOR_AXIS":"25507.886","PERIOD":"675.727","APOAPSIS":"19145.425","PERIAPSIS":"19114.076","OBJECT_TYPE":"PAYLOAD","RCS_SIZE":"LARGE","COUNTRY_CODE":"CIS","LAUNCH_DATE":"2025-03-02","SITE":"PKMTR","DECAY_DATE":null,"FILE":"5207233","GP_ID":"324006826","TLE_LINE0":"0 COSMOS 2584(GLONASS)","TLE_LINE1":"1 63130U 25042A   26140.45406615 -.00000007  00000-0  00000-0 0  9998","TLE_LINE2":"2 63130  65.0696  73.7444 0006145 233.1697 126.7665  2.13103740  9455"},{"CCSDS_OMM_VERS":"3.0","COMMENT":"GENERATED VIA SPACE-TRACK.ORG API","CREATION_DATE":"2026-05-20T14:47:11","ORIGINATOR":"18 SPCS","OBJECT_NAME":"COSMOS 2584(GLONASS)","OBJECT_ID":"2025-042A","CENTER_NAME":"EARTH","REF_FRAME":"TEME","TIME_SYSTEM":"UTC","MEAN_ELEMENT_THEORY":"SGP4","EPOCH":"2026-05-20T10:53:51.315360","MEAN_MOTION":"2.13103740","ECCENTRICITY":"0.00061450","INCLINATION":"65.0696","RA_OF_ASC_NODE":"73.7444","ARG_OF_PERICENTER":"233.1697","MEAN_ANOMALY":"126.7665","EPHEMERIS_TYPE":"0","CLASSIFICATION_TYPE":"U","NORAD_CAT_ID":"63130","ELEMENT_SET_NO":"999","REV_AT_EPOCH":"945","BSTAR":"0.00000000000000","MEAN_MOTION_DOT":"-0.00000007","MEAN_MOTION_DDOT":"0.0000000000000","SEMIMAJOR_AXIS":"25507.886","PERIOD":"675.727","APOAPSIS":"19145.425","PERIAPSIS":"19114.076","OBJECT_TYPE":"PAYLOAD","RCS_SIZE":"LARGE","COUNTRY_CODE":"CIS","LAUNCH_DATE":"2025-03-02","SITE":"PKMTR","DECAY_DATE":null,"FILE":"5207090","GP_ID":"323975245","TLE_LINE0":"0 COSMOS 2584(GLONASS)","TLE_LINE1":"1 63130U 25042A   26140.45406615 -.00000007  00000-0  00000+0 0  9997","TLE_LINE2":"2 63130  65.0696  73.7444 0006145 233.1697 126.7665  2.13103740  9455"}]